*******************************************************************************
JPL/HORIZONS                1507 Vaasa (1939 RD)           2023-Sep-04 11:12:33
Rec #:    1507 (+COV) Soln.date: 2023-Aug-22_03:58:07   # obs: 3004 (1957-2023)
 
IAU76/J2000 helio. ecliptic osc. elements (au, days, deg., period=Julian yrs):
 
  EPOCH=  2458020.5 ! 2017-Sep-24.00 (TDB)         Residual RMS= .23975
   EC= .2442642645261595   QR= 1.761974416692667   TP= 2458095.274209002
   OM= 292.8075455164919   W=  50.54830778735202   IN= 9.225145815747378
   A= 2.331468969887897    MA= 339.2980411062284   ADIST= 2.900963523083127
   PER= 3.56002            N= .276859617           ANGMOM= .025470505
   DAN= 1.8978             DDN= 2.59516            L= 342.9894282
   B= 7.1107967            MOID= .76879001         TP= 2017-Dec-07.7742090020
 
Asteroid physical parameters (km, seconds, rotational period in hours):
   GM= n.a.                RAD= 2.324              ROTPER= 34.07
   H= 13.66                G= .150                 B-V= n.a.
                           ALBEDO= .444            STYP= n.a.

ASTEROID comments: 
1: soln ref.= JPL#44, OCC=0
2: source=ORB
*******************************************************************************


*******************************************************************************
Ephemeris / API_USER Mon Sep  4 11:12:33 2023 Pasadena, USA      / Horizons
*******************************************************************************
Target body name: 1507 Vaasa (1939 RD)            {source: JPL#44}
Center body name: Solar System Barycenter (0)     {source: DE441}
Center-site name: BODY CENTER
*******************************************************************************
Start time      : A.D. 2023-Aug-12 00:00:00.0000 TDB
Stop  time      : A.D. 2023-Aug-13 00:00:00.0000 TDB
Step-size       : 2880 minutes
*******************************************************************************
Center geodetic : 0.0, 0.0, 0.0                   {E-lon(deg),Lat(deg),Alt(km)}
Center cylindric: 0.0, 0.0, 0.0                   {E-lon(deg),Dxy(km),Dz(km)}
Center radii    : (undefined)
Small perturbers: Yes                             {source: SB441-N16}
Output units    : KM-S
Calendar mode   : Mixed Julian/Gregorian
Output type     : GEOMETRIC cartesian states
Output format   : 2 (position and velocity)
Reference frame : Ecliptic of J2000.0
*******************************************************************************
Initial IAU76/J2000 heliocentric ecliptic osculating elements (au, days, deg.):
  EPOCH=  2458020.5 ! 2017-Sep-24.00 (TDB)         Residual RMS= .23975        
   EC= .2442642645261595   QR= 1.761974416692667   TP= 2458095.274209002       
   OM= 292.8075455164919   W=  50.54830778735202   IN= 9.225145815747378       
  Equivalent ICRF heliocentric cartesian coordinates (au, au/d):
   X= 1.142641674712462E+00  Y=-1.335190310058020E+00  Z=-4.898495608479159E-01
  VX= 9.683959861795842E-03 VY= 8.320137441537522E-03 VZ= 5.871553062342495E-03
Asteroid physical parameters (km, seconds, rotational period in hours):        
   GM= n.a.                RAD= 2.324              ROTPER= 34.07               
   H= 13.66                G= .150                 B-V= n.a.                   
                           ALBEDO= .444            STYP= n.a.                  
*******************************************************************************
JDTDB
   X     Y     Z
   VX    VY    VZ
*******************************************************************************
$$SOE
2460168.500000000 = A.D. 2023-Aug-12 00:00:00.0000 TDB 
 X =-4.193303103450894E+08 Y =-3.467129350286239E+07 Z =-6.470721095392673E+07
 VX= 3.183644617842837E+00 VY=-1.533177862685790E+01 VZ=-4.875479612367926E-01
$$EOE
*******************************************************************************
 
TIME

  Barycentric Dynamical Time ("TDB" or T_eph) output was requested. This
continuous coordinate time is equivalent to the relativistic proper time
of a clock at rest in a reference frame co-moving with the solar system
barycenter but outside the system's gravity well. It is the independent
variable in the solar system relativistic equations of motion.

  TDB runs at a uniform rate of one SI second per second and is independent
of irregularities in Earth's rotation.
 
CALENDAR SYSTEM

  Mixed calendar mode was active such that calendar dates after AD 1582-Oct-15
(if any) are in the modern Gregorian system. Dates prior to 1582-Oct-5 (if any)
are in the Julian calendar system, which is automatically extended for dates
prior to its adoption on 45-Jan-1 BC.  The Julian calendar is useful for
matching historical dates. The Gregorian calendar more accurately corresponds
to the Earth's orbital motion and seasons. A "Gregorian-only" calendar mode is
available if such physical events are the primary interest.

REFERENCE FRAME AND COORDINATES

  Ecliptic at the standard reference epoch

    Reference epoch: J2000.0
    X-Y plane: adopted Earth orbital plane at the reference epoch
               Note: IAU76 obliquity of 84381.448 arcseconds wrt ICRF X-Y plane
    X-axis   : ICRF
    Z-axis   : perpendicular to the X-Y plane in the directional (+ or -) sense
               of Earth's north pole at the reference epoch.

  Symbol meaning:

    JDTDB    Julian Day Number, Barycentric Dynamical Time
      X      X-component of position vector (km)
      Y      Y-component of position vector (km)
      Z      Z-component of position vector (km)
      VX     X-component of velocity vector (km/sec)                           
      VY     Y-component of velocity vector (km/sec)                           
      VZ     Z-component of velocity vector (km/sec)                           

ABERRATIONS AND CORRECTIONS

 Geometric state vectors have NO corrections or aberrations applied.

Computations by ...

    Solar System Dynamics Group, Horizons On-Line Ephemeris System
    4800 Oak Grove Drive, Jet Propulsion Laboratory
    Pasadena, CA  91109   USA

    General site: https://ssd.jpl.nasa.gov/
    Mailing list: https://ssd.jpl.nasa.gov/email_list.html
    System news : https://ssd.jpl.nasa.gov/horizons/news.html
    User Guide  : https://ssd.jpl.nasa.gov/horizons/manual.html
    Connect     : browser        https://ssd.jpl.nasa.gov/horizons/app.html#/x
                  API            https://ssd-api.jpl.nasa.gov/doc/horizons.html
                  command-line   telnet ssd.jpl.nasa.gov 6775
                  e-mail/batch   https://ssd.jpl.nasa.gov/ftp/ssd/hrzn_batch.txt
                  scripts        https://ssd.jpl.nasa.gov/ftp/ssd/SCRIPTS
    Author      : Jon.D.Giorgini@jpl.nasa.gov
*******************************************************************************
